IRIDIUM 7               
1 24793U 97020B   25336.80753699  .00000592  00000+0  19680-3 0  9991
2 24793  86.3948 106.2625 0001697  90.9747 269.1644 14.36090924496094
IRIDIUM 5               
1 24795U 97020D   25336.82599006  .00007373  00000+0  58340-3 0  9995
2 24795  86.3891   5.8526 0102287 251.7662 107.2415 14.96354542510660
IRIDIUM 4               
1 24796U 97020E   25336.82448640  .00000588  00000+0  19204-3 0  9990
2 24796  86.3945 103.0188 0001943  90.5061 269.6359 14.36995910496684
IRIDIUM 914             
1 24836U 97030A   25336.84097088  .00000690  00000+0  20845-3 0  9991
2 24836  86.3925 111.1184 0002960  62.5468 297.6032 14.41050627631417
IRIDIUM 16              
1 24841U 97030F   25336.84614897  .00000693  00000+0  21902-3 0  9998
2 24841  86.4027 134.4737 0001378 166.6016 193.5219 14.38870125491252
IRIDIUM 911             
1 24842U 97030G   25336.83233362  .00000898  00000+0  23717-3 0  9995
2 24842  86.4450 133.0639 0012174 252.9208 107.0663 14.47870032499480
IRIDIUM 920             
1 24871U 97034C   25336.82292287  .00000690  00000+0  20544-3 0  9996
2 24871  86.3973 142.7555 0009706 240.3958 119.6276 14.41711265490874
